ONEWEB-0190             
1 48796U 21045AF  26145.03697395 -.00000064  00000+0 -20442-3 0  9992
2 48796  87.8989 263.8097 0001416  81.1389 278.9901 13.15549456241323
ONEWEB-0236             
1 48797U 21045AG  26144.82622196 -.00000154  00000+0 -44362-3 0  9993
2 48797  87.8988 263.8620 0001930 104.3700 255.7645 13.15546484241181
ONEWEB-0248             
1 48798U 21045AH  26144.83890808 -.00000033  00000+0 -12132-3 0  9998
2 48798  87.8998 263.8407 0001395  99.1831 260.9457 13.15546736241344
ONEWEB-0225             
1 48799U 21045AJ  26144.78503794  .00000153  00000+0  37198-3 0  9998
2 48799  87.8990 263.8607 0001464  86.0683 274.0615 13.15547830241344
ONEWEB-0215             
1 48800U 21045AK  26145.05915983 -.00000079  00000+0 -24281-3 0  9997
2 48800  87.8999 263.7868 0001270  87.0596 273.0679 13.15550441241254
ONEWEB-0216             
1 48801U 21045AL  26145.06866927 -.00000025  00000+0 -99431-4 0  9993
2 48801  87.8996 263.8006 0001957  99.3012 260.8339 13.15546652241265
ONEWEB-0239             
1 48802U 21045AM  26144.84524330  .00000087  00000+0  19802-3 0  9997
2 48802  87.8987 263.8536 0001058  96.0088 264.1163 13.15546976241275
ONEWEB-0249             
1 48967U 21060A   26144.94982154  .00000033  00000+0  52114-4 0  9994
2 48967  87.9107 233.3915 0001907 102.6013 257.5331 13.16594827236557
ONEWEB-0250             
1 48968U 21060B   26144.98797858  .00000087  00000+0  16861-3 0  9991
2 48968  87.9107 231.2160 0001892 130.0510 230.0792 13.25832564237143
ONEWEB-0252             
1 48970U 21060D   26145.20867324  .00000016  00000+0  73854-5 0  9995
2 48970  87.9106 233.3322 0002124  94.3240 265.8134 13.16595839236639
ONEWEB-0253             
1 48971U 21060E   26145.19758201 -.00000034  00000+0 -12285-3 0  9998
2 48971  87.9105 233.3400 0001926 100.6516 259.4832 13.16592509236569
ONEWEB-0254             
1 48972U 21060F   26145.20709383  .00000037  00000+0  62182-4 0  9991
2 48972  87.9108 233.3350 0001682 100.7273 259.4047 13.16593425236563
ONEWEB-0255             
1 48973U 21060G   26144.94110682 -.00000024  00000+0 -96075-4 0  9996
2 48973  87.9107 233.3954 0001825  98.9074 261.2263 13.16593661236607
ONEWEB-0256             
1 48974U 21060H   26144.96722492 -.00000060  00000+0 -19039-3 0  9991
2 48974  87.9099 233.3950 0002097  99.7485 260.3883 13.16596390236577
ONEWEB-0257             
1 48975U 21060J   26145.22767089  .00000058  00000+0  11694-3 0  9997
2 48975  87.9105 233.3296 0001906  96.4451 263.6897 13.16592980236565
ONEWEB-0258             
1 48976U 21060K   26145.22925513  .00000070  00000+0  14986-3 0  9997
2 48976  87.9110 233.3409 0001934 100.8445 259.2903 13.16592643236578
