[{"OBJECT_NAME":"ONEWEB-0190","OBJECT_ID":"2021-045AF","EPOCH":"2026-05-25T00:53:14.549280","MEAN_MOTION":13.15549456,"ECCENTRICITY":0.0001416,"INCLINATION":87.8989,"RA_OF_ASC_NODE":263.8097,"ARG_OF_PERICENTER":81.1389,"MEAN_ANOMALY":278.9901,"EPHEMERIS_TYPE":0,"CLASSIFICATION_TYPE":"U","NORAD_CAT_ID":48796,"ELEMENT_SET_NO":999,"REV_AT_EPOCH":24132,"BSTAR":-0.00020442,"MEAN_MOTION_DOT":-6.4e-07,"MEAN_MOTION_DDOT":0.0},{"OBJECT_NAME":"ONEWEB-0236","OBJECT_ID":"2021-045AG","EPOCH":"2026-05-24T19:49:45.577344","MEAN_MOTION":13.15546484,"ECCENTRICITY":0.000193,"INCLINATION":87.8988,"RA_OF_ASC_NODE":263.862,"ARG_OF_PERICENTER":104.37,"MEAN_ANOMALY":255.7645,"EPHEMERIS_TYPE":0,"CLASSIFICATION_TYPE":"U","NORAD_CAT_ID":48797,"ELEMENT_SET_NO":999,"REV_AT_EPOCH":24118,"BSTAR":-0.00044362000000000004,"MEAN_MOTION_DOT":-1.54e-06,"MEAN_MOTION_DDOT":0.0},{"OBJECT_NAME":"ONEWEB-0248","OBJECT_ID":"2021-045AH","EPOCH":"2026-05-24T20:08:01.658112","MEAN_MOTION":13.15546736,"ECCENTRICITY":0.0001395,"INCLINATION":87.8998,"RA_OF_ASC_NODE":263.8407,"ARG_OF_PERICENTER":99.1831,"MEAN_ANOMALY":260.9457,"EPHEMERIS_TYPE":0,"CLASSIFICATION_TYPE":"U","NORAD_CAT_ID":48798,"ELEMENT_SET_NO":999,"REV_AT_EPOCH":24134,"BSTAR":-0.00012132,"MEAN_MOTION_DOT":-3.3e-07,"MEAN_MOTION_DDOT":0.0},{"OBJECT_NAME":"ONEWEB-0225","OBJECT_ID":"2021-045AJ","EPOCH":"2026-05-24T18:50:27.278016","MEAN_MOTION":13.1554783,"ECCENTRICITY":0.0001464,"INCLINATION":87.899,"RA_OF_ASC_NODE":263.8607,"ARG_OF_PERICENTER":86.0683,"MEAN_ANOMALY":274.0615,"EPHEMERIS_TYPE":0,"CLASSIFICATION_TYPE":"U","NORAD_CAT_ID":48799,"ELEMENT_SET_NO":999,"REV_AT_EPOCH":24134,"BSTAR":0.00037198,"MEAN_MOTION_DOT":1.53e-06,"MEAN_MOTION_DDOT":0.0},{"OBJECT_NAME":"ONEWEB-0215","OBJECT_ID":"2021-045AK","EPOCH":"2026-05-25T01:25:11.409312","MEAN_MOTION":13.15550441,"ECCENTRICITY":0.000127,"INCLINATION":87.8999,"RA_OF_ASC_NODE":263.7868,"ARG_OF_PERICENTER":87.0596,"MEAN_ANOMALY":273.0679,"EPHEMERIS_TYPE":0,"CLASSIFICATION_TYPE":"U","NORAD_CAT_ID":48800,"ELEMENT_SET_NO":999,"REV_AT_EPOCH":24125,"BSTAR":-0.00024281000000000001,"MEAN_MOTION_DOT":-7.9e-07,"MEAN_MOTION_DDOT":0.0},{"OBJECT_NAME":"ONEWEB-0216","OBJECT_ID":"2021-045AL","EPOCH":"2026-05-25T01:38:53.024928","MEAN_MOTION":13.15546652,"ECCENTRICITY":0.0001957,"INCLINATION":87.8996,"RA_OF_ASC_NODE":263.8006,"ARG_OF_PERICENTER":99.3012,"MEAN_ANOMALY":260.8339,"EPHEMERIS_TYPE":0,"CLASSIFICATION_TYPE":"U","NORAD_CAT_ID":48801,"ELEMENT_SET_NO":999,"REV_AT_EPOCH":24126,"BSTAR":-9.9431e-05,"MEAN_MOTION_DOT":-2.5e-07,"MEAN_MOTION_DDOT":0.0},{"OBJECT_NAME":"ONEWEB-0239","OBJECT_ID":"2021-045AM","EPOCH":"2026-05-24T20:17:09.021120","MEAN_MOTION":13.15546976,"ECCENTRICITY":0.0001058,"INCLINATION":87.8987,"RA_OF_ASC_NODE":263.8536,"ARG_OF_PERICENTER":96.0088,"MEAN_ANOMALY":264.1163,"EPHEMERIS_TYPE":0,"CLASSIFICATION_TYPE":"U","NORAD_CAT_ID":48802,"ELEMENT_SET_NO":999,"REV_AT_EPOCH":24127,"BSTAR":0.00019802,"MEAN_MOTION_DOT":8.7e-07,"MEAN_MOTION_DDOT":0.0},{"OBJECT_NAME":"ONEWEB-0249","OBJECT_ID":"2021-060A","EPOCH":"2026-05-24T22:47:44.581056","MEAN_MOTION":13.16594827,"ECCENTRICITY":0.0001907,"INCLINATION":87.9107,"RA_OF_ASC_NODE":233.3915,"ARG_OF_PERICENTER":102.6013,"MEAN_ANOMALY":257.5331,"EPHEMERIS_TYPE":0,"CLASSIFICATION_TYPE":"U","NORAD_CAT_ID":48967,"ELEMENT_SET_NO":999,"REV_AT_EPOCH":23655,"BSTAR":5.211400000000001e-05,"MEAN_MOTION_DOT":3.3e-07,"MEAN_MOTION_DDOT":0.0},{"OBJECT_NAME":"ONEWEB-0250","OBJECT_ID":"2021-060B","EPOCH":"2026-05-24T23:42:41.349312","MEAN_MOTION":13.25832564,"ECCENTRICITY":0.0001892,"INCLINATION":87.9107,"RA_OF_ASC_NODE":231.216,"ARG_OF_PERICENTER":130.051,"MEAN_ANOMALY":230.0792,"EPHEMERIS_TYPE":0,"CLASSIFICATION_TYPE":"U","NORAD_CAT_ID":48968,"ELEMENT_SET_NO":999,"REV_AT_EPOCH":23714,"BSTAR":0.00016861,"MEAN_MOTION_DOT":8.7e-07,"MEAN_MOTION_DDOT":0.0},{"OBJECT_NAME":"ONEWEB-0252","OBJECT_ID":"2021-060D","EPOCH":"2026-05-25T05:00:29.367936","MEAN_MOTION":13.16595839,"ECCENTRICITY":0.0002124,"INCLINATION":87.9106,"RA_OF_ASC_NODE":233.3322,"ARG_OF_PERICENTER":94.324,"MEAN_ANOMALY":265.8134,"EPHEMERIS_TYPE":0,"CLASSIFICATION_TYPE":"U","NORAD_CAT_ID":48970,"ELEMENT_SET_NO":999,"REV_AT_EPOCH":23663,"BSTAR":7.3854000000000005e-06,"MEAN_MOTION_DOT":1.6e-07,"MEAN_MOTION_DDOT":0.0},{"OBJECT_NAME":"ONEWEB-0253","OBJECT_ID":"2021-060E","EPOCH":"2026-05-25T04:44:31.085664","MEAN_MOTION":13.16592509,"ECCENTRICITY":0.0001926,"INCLINATION":87.9105,"RA_OF_ASC_NODE":233.34,"ARG_OF_PERICENTER":100.6516,"MEAN_ANOMALY":259.4832,"EPHEMERIS_TYPE":0,"CLASSIFICATION_TYPE":"U","NORAD_CAT_ID":48971,"ELEMENT_SET_NO":999,"REV_AT_EPOCH":23656,"BSTAR":-0.00012285,"MEAN_MOTION_DOT":-3.4e-07,"MEAN_MOTION_DDOT":0.0},{"OBJECT_NAME":"ONEWEB-0254","OBJECT_ID":"2021-060F","EPOCH":"2026-05-25T04:58:12.906912","MEAN_MOTION":13.16593425,"ECCENTRICITY":0.0001682,"INCLINATION":87.9108,"RA_OF_ASC_NODE":233.335,"ARG_OF_PERICENTER":100.7273,"MEAN_ANOMALY":259.4047,"EPHEMERIS_TYPE":0,"CLASSIFICATION_TYPE":"U","NORAD_CAT_ID":48972,"ELEMENT_SET_NO":999,"REV_AT_EPOCH":23656,"BSTAR":6.218200000000001e-05,"MEAN_MOTION_DOT":3.7e-07,"MEAN_MOTION_DDOT":0.0},{"OBJECT_NAME":"ONEWEB-0255","OBJECT_ID":"2021-060G","EPOCH":"2026-05-24T22:35:11.629248","MEAN_MOTION":13.16593661,"ECCENTRICITY":0.0001825,"INCLINATION":87.9107,"RA_OF_ASC_NODE":233.3954,"ARG_OF_PERICENTER":98.9074,"MEAN_ANOMALY":261.2263,"EPHEMERIS_TYPE":0,"CLASSIFICATION_TYPE":"U","NORAD_CAT_ID":48973,"ELEMENT_SET_NO":999,"REV_AT_EPOCH":23660,"BSTAR":-9.6075e-05,"MEAN_MOTION_DOT":-2.4e-07,"MEAN_MOTION_DDOT":0.0},{"OBJECT_NAME":"ONEWEB-0256","OBJECT_ID":"2021-060H","EPOCH":"2026-05-24T23:12:48.233088","MEAN_MOTION":13.1659639,"ECCENTRICITY":0.0002097,"INCLINATION":87.9099,"RA_OF_ASC_NODE":233.395,"ARG_OF_PERICENTER":99.7485,"MEAN_ANOMALY":260.3883,"EPHEMERIS_TYPE":0,"CLASSIFICATION_TYPE":"U","NORAD_CAT_ID":48974,"ELEMENT_SET_NO":999,"REV_AT_EPOCH":23657,"BSTAR":-0.00019039,"MEAN_MOTION_DOT":-6e-07,"MEAN_MOTION_DDOT":0.0},{"OBJECT_NAME":"ONEWEB-0257","OBJECT_ID":"2021-060J","EPOCH":"2026-05-25T05:27:50.764896","MEAN_MOTION":13.1659298,"ECCENTRICITY":0.0001906,"INCLINATION":87.9105,"RA_OF_ASC_NODE":233.3296,"ARG_OF_PERICENTER":96.4451,"MEAN_ANOMALY":263.6897,"EPHEMERIS_TYPE":0,"CLASSIFICATION_TYPE":"U","NORAD_CAT_ID":48975,"ELEMENT_SET_NO":999,"REV_AT_EPOCH":23656,"BSTAR":0.00011694,"MEAN_MOTION_DOT":5.8e-07,"MEAN_MOTION_DDOT":0.0},{"OBJECT_NAME":"ONEWEB-0258","OBJECT_ID":"2021-060K","EPOCH":"2026-05-25T05:30:07.643232","MEAN_MOTION":13.16592643,"ECCENTRICITY":0.0001934,"INCLINATION":87.911,"RA_OF_ASC_NODE":233.3409,"ARG_OF_PERICENTER":100.8445,"MEAN_ANOMALY":259.2903,"EPHEMERIS_TYPE":0,"CLASSIFICATION_TYPE":"U","NORAD_CAT_ID":48976,"ELEMENT_SET_NO":999,"REV_AT_EPOCH":23657,"BSTAR":0.00014986,"MEAN_MOTION_DOT":7e-07,"MEAN_MOTION_DDOT":0.0}]